NORAD_CAT_ID,OBJECT_NAME,OBJECT_TYPE,EPOCH,MEAN_MOTION,ECCENTRICITY,INCLINATION,RA_OF_ASC_NODE,ARG_OF_PERICENTER,MEAN_ANOMALY,BSTAR,MEAN_MOTION_DOT,MEAN_MOTION_DDOT,TLE_LINE0,TLE_LINE1,TLE_LINE2,SEMIMAJOR_AXIS,PERIOD,APOGEE,PERIGEE,DECAYED
53168.0,STARLINK-4105,PAYLOAD,2024-04-27 08:16:41,15.08856825,0.0001307,53.2188,342.7982,85.5595,274.5546,0.00026374,3.914e-05,0.0,0 STARLINK-4105,1 53168U 22083AN  24118.34492023  .00003914  00000-0  26374-3 0  9993,2 53168  53.2188 342.7982 0001307  85.5595 274.5546 15.08856825 98508,6917.829,95.436,540.598,538.79,0.0
53168.0,STARLINK-4105,PAYLOAD,2024-04-27 20:59:48,15.08824094,7.66e-05,53.2175,340.4171,97.3153,262.7927,-6.4338e-05,-1.311e-05,0.0,0 STARLINK-4105,1 53168U 22083AN  24118.87487069 -.00001311  00000-0 -64338-4 0  9999,2 53168  53.2175 340.4171 0000766  97.3153 262.7927 15.08824094 99212,6917.929,95.439,540.324,539.264,0.0
53168.0,STARLINK-4105,PAYLOAD,2024-04-28 00:10:34,15.08831899,0.0001019,53.2163,339.8211,99.1611,260.9497,-5.4346e-06,-3.74e-06,0.0,0 STARLINK-4105,1 53168U 22083AN  24119.00734458 -.00000374  00000-0 -54346-5 0  9999,2 53168  53.2163 339.8211 0001019  99.1611 260.9497 15.08831899 99232,6917.905,95.438,540.475,539.065,0.0
53168.0,STARLINK-4105,PAYLOAD,2024-04-28 20:50:34,15.08845646,0.0001361,53.2203,335.9543,93.6762,266.4386,-3.8497e-05,-9.01e-06,0.0,0 STARLINK-4105,1 53168U 22083AN  24119.86845930 -.00000901  00000-0 -38497-4 0  9995,2 53168  53.2203 335.9543 0001361  93.6762 266.4386 15.08845646 99365,6917.863,95.437,540.67,538.787,0.0
53168.0,STARLINK-4105,PAYLOAD,2024-04-29 07:58:16,15.08847787,0.0001343,53.2205,333.8736,89.2864,270.8282,-8.3227e-07,-3.01e-06,0.0,0 STARLINK-4105,1 53168U 22083AN  24120.33213505 -.00000301  00000-0 -83227-6 0  9993,2 53168  53.2205 333.8736 0001343  89.2864 270.8282 15.08847787 98802,6917.857,95.437,540.651,538.793,0.0
53168.0,STARLINK-4105,PAYLOAD,2024-04-29 20:41:22,15.08836513,0.0001303,53.2197,331.4988,78.1082,282.0056,5.9471e-05,6.59e-06,0.0,0 STARLINK-4105,1 53168U 22083AN  24120.86206126  .00000659  00000-0  59471-4 0  9998,2 53168  53.2197 331.4988 0001303  78.1082 282.0056 15.08836513 99518,6917.891,95.438,540.657,538.855,0.0
53168.0,STARLINK-4105,PAYLOAD,2024-04-30 20:32:09,15.08841369,0.0001213,53.2188,327.0373,77.8793,282.2335,4.7006e-06,-2.13e-06,0.0,0 STARLINK-4105,1 53168U 22083AN  24121.85565998 -.00000213  00000-0  47006-5 0  9992,2 53168  53.2188 327.0373 0001213  77.8793 282.2335 15.08841369 99036,6917.876,95.437,540.58,538.902,0.0
53168.0,STARLINK-4105,PAYLOAD,2024-04-30 23:42:55,15.08841808,0.000122,53.2195,326.4416,81.6904,278.4226,2.0093e-05,3.2e-07,0.0,0 STARLINK-4105,1 53168U 22083AN  24121.98813882  .00000032  00000-0  20093-4 0  9998,2 53168  53.2195 326.4416 0001220  81.6904 278.4226 15.08841808 99685,6917.875,95.437,540.584,538.896,0.0
53168.0,STARLINK-4105,PAYLOAD,2024-05-01 06:04:27,15.08849872,0.0001222,53.2191,325.2516,81.4552,278.6578,7.1367e-05,8.48e-06,0.0,0 STARLINK-4105,1 53168U 22083AN  24122.25309117  .00000848  00000-0  71367-4 0  9995,2 53168  53.2191 325.2516 0001222  81.4552 278.6578 15.08849872 99724,6917.85,95.437,540.561,538.87,0.0
53168.0,STARLINK-4105,PAYLOAD,2024-05-01 20:22:56,15.0883874,0.0002042,53.2186,322.5767,95.6267,264.4958,4.3403e-05,4.03e-06,0.0,0 STARLINK-4105,1 53168U 22083AN  24122.84926035  .00000403  00000-0  43403-4 0  9991,2 53168  53.2186 322.5767 0002042  95.6267 264.4958 15.08838740 99814,6917.884,95.438,541.162,538.337,0.0
53168.0,STARLINK-4105,PAYLOAD,2024-05-02 05:55:15,15.08837392,0.0001592,53.218,320.7898,84.4102,275.7072,-1.3893e-06,-3.1e-06,0.0,0 STARLINK-4105,1 53168U 22083AN  24123.24670298 -.00000310  00000-0 -13893-5 0  9993,2 53168  53.2180 320.7898 0001592  84.4102 275.7072 15.08837392 99247,6917.888,95.438,540.855,538.652,0.0
53168.0,STARLINK-4105,PAYLOAD,2024-05-02 20:13:43,15.08838162,0.0001344,53.2184,318.118,101.1717,258.9426,1.7202e-05,-1.4e-07,0.0,0 STARLINK-4105,1 53168U 22083AN  24123.84286175 -.00000014  00000-0  17202-4 0  9993,2 53168  53.2184 318.1180 0001344 101.1717 258.9426 15.08838162 99332,6917.886,95.438,540.681,538.821,0.0
53168.0,STARLINK-4105,PAYLOAD,2024-05-03 20:04:29,15.08843277,0.0001095,53.2166,313.6539,86.4908,273.6209,3.1836e-05,2.19e-06,0.0,0 STARLINK-4105,1 53168U 22083AN  24124.83645710  .00000219  00000-0  31836-4 0  9992,2 53168  53.2166 313.6539 0001095  86.4908 273.6209 15.08843277100115,6917.87,95.437,540.493,538.978,0.0
53168.0,STARLINK-4105,PAYLOAD,2024-05-03 21:39:53,15.08842364,0.0001209,53.2167,313.3567,88.8867,271.2263,4.9992e-05,5.08e-06,0.0,0 STARLINK-4105,1 53168U 22083AN  24124.90269686  .00000508  00000-0  49992-4 0  9997,2 53168  53.2167 313.3567 0001209  88.8867 271.2263 15.08842364 99499,6917.873,95.437,540.575,538.902,0.0
53168.0,STARLINK-4105,PAYLOAD,2024-05-04 19:55:17,15.08836047,0.000109,53.2169,309.1936,86.9596,273.1521,-4.7542e-05,-1.044e-05,0.0,0 STARLINK-4105,1 53168U 22083AN  24125.83006531 -.00001044  00000-0 -47542-4 0  9995,2 53168  53.2169 309.1936 0001090  86.9596 273.1521 15.08836047100267,6917.892,95.438,540.512,539.003,0.0
53168.0,STARLINK-4105,PAYLOAD,2024-05-05 11:49:08,15.0883974,0.0001084,53.2174,306.2188,85.2437,274.8679,1.2573e-05,-8.8e-07,0.0,0 STARLINK-4105,1 53168U 22083AN  24126.49246134 -.00000088  00000-0  12573-4 0  9995,2 53168  53.2174 306.2188 0001084  85.2437 274.8679 15.08839740 99733,6917.881,95.438,540.496,538.996,0.0
53168.0,STARLINK-4105,PAYLOAD,2024-05-05 18:10:40,15.08843666,0.0001122,53.2173,305.0307,84.1423,275.9697,4.77e-05,4.71e-06,0.0,0 STARLINK-4105,1 53168U 22083AN  24126.75741746  .00000471  00000-0  47700-4 0  9998,2 53168  53.2173 305.0307 0001122  84.1423 275.9697 15.08843666100409,6917.869,95.437,540.51,538.958,0.0
53168.0,STARLINK-4105,PAYLOAD,2024-05-06 05:18:22,15.08850969,0.0001177,53.2177,302.9495,83.0417,277.0709,0.00010312,1.354e-05,0.0,0 STARLINK-4105,1 53168U 22083AN  24127.22108958  .00001354  00000-0  10312-3 0  9992,2 53168  53.2177 302.9495 0001177  83.0417 277.0709 15.08850969100476,6917.847,95.437,540.526,538.898,0.0
53168.0,STARLINK-4105,PAYLOAD,2024-05-06 14:50:41,15.08836755,0.0001287,53.2185,301.1633,103.3493,256.7643,0.00012627,1.722e-05,0.0,0 STARLINK-4105,1 53168U 22083AN  24127.61853765  .00001722  00000-0  12627-3 0  9998,2 53168  53.2185 301.1633 0001287 103.3493 256.7643 15.08836755 99905,6917.89,95.438,540.646,538.865,0.0
53168.0,STARLINK-4105,PAYLOAD,2024-05-06 18:01:28,15.08835041,0.0001214,53.2189,300.5687,104.2827,255.83,0.00010886,1.445e-05,0.0,0 STARLINK-4105,1 53168U 22083AN  24127.75101934  .00001445  00000-0  10886-3 0  9994,2 53168  53.2189 300.5687 0001214 104.2827 255.8300 15.08835041100553,6917.896,95.438,540.6,538.921,0.0
53168.0,STARLINK-4105,PAYLOAD,2024-05-06 21:12:14,15.08838806,0.0001338,53.2188,299.9735,103.3211,256.793,4.8357e-05,4.82e-06,0.0,0 STARLINK-4105,1 53168U 22083AN  24127.88349902  .00000482  00000-0  48357-4 0  9992,2 53168  53.2188 299.9735 0001338 103.3211 256.7930 15.08838806 99942,6917.884,95.438,540.675,538.823,0.0
53168.0,STARLINK-4105,PAYLOAD,2024-05-07 14:41:29,15.08837654,0.000133,53.2183,296.7018,104.2125,255.9015,-8.3597e-05,-1.618e-05,0.0,0 STARLINK-4105,1 53168U 22083AN  24128.61214541 -.00001618  00000-0 -83597-4 0  9993,2 53168  53.2183 296.7018 0001330 104.2125 255.9015 15.08837654100052,6917.888,95.438,540.673,538.832,0.0
53168.0,STARLINK-4105,PAYLOAD,2024-05-07 17:52:15,15.08833856,0.0001213,53.2182,296.108,100.1669,259.9459,-9.4767e-05,-1.795e-05,0.0,0 STARLINK-4105,1 53168U 22083AN  24128.74462858 -.00001795  00000-0 -94767-4 0  9990,2 53168  53.2182 296.1080 0001213 100.1669 259.9459 15.08833856100700,6917.899,95.438,540.603,538.925,0.0
53168.0,STARLINK-4105,PAYLOAD,2024-05-08 14:32:16,15.088353,0.0001039,53.217,292.2401,98.2372,261.8738,4.3912e-05,4.11e-06,0.0,0 STARLINK-4105,1 53168U 22083AN  24129.60574511  .00000411  00000-0  43912-4 0  9994,2 53168  53.2170 292.2401 0001039  98.2372 261.8738 15.08835300100208,6917.895,95.438,540.479,539.041,0.0
53168.0,STARLINK-4105,PAYLOAD,2024-05-08 17:43:02,15.08839037,0.0001076,53.2174,291.6485,80.0297,280.0817,6.9043e-05,8.11e-06,0.0,0 STARLINK-4105,1 53168U 22083AN  24129.73822323  .00000811  00000-0  69043-4 0  9992,2 53168  53.2174 291.6485 0001076  80.0297 280.0817 15.08839037100856,6917.883,95.438,540.493,539.004,0.0
53168.0,STARLINK-4105,PAYLOAD,2024-05-09 03:15:20,15.08855116,0.0001081,53.2181,289.8652,81.2149,278.8966,0.00013002,1.783e-05,0.0,0 STARLINK-4105,1 53168U 22083AN  24130.13564992  .00001783  00000-0  13002-3 0  9995,2 53168  53.2181 289.8652 0001081  81.2149 278.8966 15.08855116100917,6917.834,95.437,540.447,538.951,0.0
53168.0,STARLINK-4105,PAYLOAD,2024-05-09 11:12:16,15.08839381,0.0002147,53.2178,288.378,79.057,281.0663,0.00014899,2.084e-05,0.0,0 STARLINK-4105,1 53168U 22083AN  24130.46686262  .00002084  00000-0  14899-3 0  9996,2 53168  53.2178 288.3780 0002147  79.0570 281.0663 15.08839381100967,6917.882,95.438,541.233,538.262,0.0
53168.0,STARLINK-4105,PAYLOAD,2024-05-09 14:23:04,15.08824628,0.0001174,53.2178,287.7852,89.7177,270.395,5.2667e-05,5.5e-06,0.0,0 STARLINK-4105,1 53168U 22083AN  24130.59935417  .00000550  00000-0  52667-4 0  9991,2 53168  53.2178 287.7852 0001174  89.7177 270.3950 15.08824628100351,6917.927,95.439,540.605,538.98,0.0
53168.0,STARLINK-4105,PAYLOAD,2024-05-09 17:33:50,15.08826024,0.0001042,53.2185,287.194,85.5011,274.61,9.7416e-05,1.262e-05,0.0,0 STARLINK-4105,1 53168U 22083AN  24130.73183317  .00001262  00000-0  97416-4 0  9993,2 53168  53.2185 287.1940 0001042  85.5011 274.6100 15.08826024101005,6917.923,95.438,540.509,539.067,0.0
53168.0,STARLINK-4105,PAYLOAD,2024-05-10 14:13:51,15.08837446,0.0001245,53.2195,283.3283,100.2488,259.8645,3.8573e-05,3.26e-06,0.0,0 STARLINK-4105,1 53168U 22083AN  24131.59295280  .00000326  00000-0  38573-4 0  9990,2 53168  53.2195 283.3283 0001245 100.2488 259.8645 15.08837446100505,6917.888,95.438,540.614,538.892,0.0
